{"fetched_at":"2026-07-15T17:46:44.919Z","source":"https://celestrak.org/NORAD/elements/gp.php?GROUP=kuiper&FORMAT=JSON","constellation":"kuiper","records":[{"OBJECT_NAME":"KUIPER-00044","OBJECT_ID":"2025-134F","EPOCH":"2026-07-14T22:39:49.183200","CLASSIFICATION_TYPE":"U","MEAN_MOTION":14.79929873,"ECCENTRICITY":0.0000736,"INCLINATION":51.9004,"RA_OF_ASC_NODE":42.8345,"ARG_OF_PERICENTER":121.1569,"MEAN_ANOMALY":238.9465,"EPHEMERIS_TYPE":0,"NORAD_CAT_ID":64505,"ELEMENT_SET_NO":999,"REV_AT_EPOCH":5874,"BSTAR":0.00025772,"MEAN_MOTION_DOT":0.00001744,"MEAN_MOTION_DDOT":0},{"OBJECT_NAME":"KUIPER-00046","OBJECT_ID":"2025-134G","EPOCH":"2026-07-14T23:32:19.551840","CLASSIFICATION_TYPE":"U","MEAN_MOTION":14.79932725,"ECCENTRICITY":0.000084,"INCLINATION":51.8994,"RA_OF_ASC_NODE":40.1499,"ARG_OF_PERICENTER":117.2746,"MEAN_ANOMALY":242.8302,"EPHEMERIS_TYPE":0,"NORAD_CAT_ID":64506,"ELEMENT_SET_NO":999,"REV_AT_EPOCH":5878,"BSTAR":0.000018009,"MEAN_MOTION_DOT":-8.4e-7,"MEAN_MOTION_DDOT":0},{"OBJECT_NAME":"KUIPER-00047","OBJECT_ID":"2025-134H","EPOCH":"2026-07-14T16:57:26.815104","CLASSIFICATION_TYPE":"U","MEAN_MOTION":14.7992907,"ECCENTRICITY":0.0000604,"INCLINATION":51.9005,"RA_OF_ASC_NODE":13.8868,"ARG_OF_PERICENTER":106.3739,"MEAN_ANOMALY":253.729,"EPHEMERIS_TYPE":0,"NORAD_CAT_ID":64507,"ELEMENT_SET_NO":999,"REV_AT_EPOCH":5912,"BSTAR":0.00023869537,"MEAN_MOTION_DOT":0.00001599,"MEAN_MOTION_DDOT":0},{"OBJECT_NAME":"KUIPER-00048","OBJECT_ID":"2025-134J","EPOCH":"2026-07-14T19:23:19.110048","CLASSIFICATION_TYPE":"U","MEAN_MOTION":14.79939648,"ECCENTRICITY":0.00007214,"INCLINATION":51.9008,"RA_OF_ASC_NODE":13.4533,"ARG_OF_PERICENTER":127.3868,"MEAN_ANOMALY":232.716,"EPHEMERIS_TYPE":0,"NORAD_CAT_ID":64508,"ELEMENT_SET_NO":999,"REV_AT_EPOCH":5914,"BSTAR":0.00025440769,"MEAN_MOTION_DOT":0.00001719,"MEAN_MOTION_DDOT":0},{"OBJECT_NAME":"KUIPER-00049","OBJECT_ID":"2025-134K","EPOCH":"2026-07-14T19:52:30.438048","CLASSIFICATION_TYPE":"U","MEAN_MOTION":14.7993319,"ECCENTRICITY":0.0000663,"INCLINATION":51.9011,"RA_OF_ASC_NODE":25.8281,"ARG_OF_PERICENTER":116.7953,"MEAN_ANOMALY":243.3077,"EPHEMERIS_TYPE":0,"NORAD_CAT_ID":64509,"ELEMENT_SET_NO":999,"REV_AT_EPOCH":5897,"BSTAR":0.00024305334,"MEAN_MOTION_DOT":0.00001632,"MEAN_MOTION_DDOT":0},{"OBJECT_NAME":"KUIPER-00050","OBJECT_ID":"2025-134L","EPOCH":"2026-07-14T18:42:27.256896","CLASSIFICATION_TYPE":"U","MEAN_MOTION":14.79933301,"ECCENTRICITY":0.00006409,"INCLINATION":51.9018,"RA_OF_ASC_NODE":8.5651,"ARG_OF_PERICENTER":121.0997,"MEAN_ANOMALY":239.0028,"EPHEMERIS_TYPE":0,"NORAD_CAT_ID":64510,"ELEMENT_SET_NO":999,"REV_AT_EPOCH":5921,"BSTAR":0.00025301614,"MEAN_MOTION_DOT":0.00001708,"MEAN_MOTION_DDOT":0},{"OBJECT_NAME":"KUIPER-00051","OBJECT_ID":"2025-134M","EPOCH":"2026-07-14T22:32:26.981088","CLASSIFICATION_TYPE":"U","MEAN_MOTION":14.79944766,"ECCENTRICITY":0.0000804,"INCLINATION":51.9025,"RA_OF_ASC_NODE":24.0308,"ARG_OF_PERICENTER":119.7161,"MEAN_ANOMALY":240.3881,"EPHEMERIS_TYPE":0,"NORAD_CAT_ID":64511,"ELEMENT_SET_NO":999,"REV_AT_EPOCH":5900,"BSTAR":0.0002521,"MEAN_MOTION_DOT":0.00001702,"MEAN_MOTION_DDOT":0},{"OBJECT_NAME":"KUIPER-00053","OBJECT_ID":"2025-134P","EPOCH":"2026-07-14T21:25:18.975936","CLASSIFICATION_TYPE":"U","MEAN_MOTION":14.81687775,"ECCENTRICITY":0.0000399,"INCLINATION":51.9017,"RA_OF_ASC_NODE":19.4828,"ARG_OF_PERICENTER":312.1047,"MEAN_ANOMALY":47.9882,"EPHEMERIS_TYPE":0,"NORAD_CAT_ID":64513,"ELEMENT_SET_NO":999,"REV_AT_EPOCH":5906,"BSTAR":0.00021808,"MEAN_MOTION_DOT":0.0000151,"MEAN_MOTION_DDOT":0},{"OBJECT_NAME":"KUIPER-00054","OBJECT_ID":"2025-134Q","EPOCH":"2026-07-14T22:33:57.770208","CLASSIFICATION_TYPE":"U","MEAN_MOTION":14.79934537,"ECCENTRICITY":0.0000809,"INCLINATION":51.9,"RA_OF_ASC_NODE":15.3454,"ARG_OF_PERICENTER":123.6063,"MEAN_ANOMALY":236.4977,"EPHEMERIS_TYPE":0,"NORAD_CAT_ID":64514,"ELEMENT_SET_NO":999,"REV_AT_EPOCH":5912,"BSTAR":0.00026678,"MEAN_MOTION_DOT":0.00001813,"MEAN_MOTION_DDOT":0},{"OBJECT_NAME":"KUIPER-00055","OBJECT_ID":"2025-134R","EPOCH":"2026-07-14T14:52:52.589568","CLASSIFICATION_TYPE":"U","MEAN_MOTION":14.79928884,"ECCENTRICITY":0.00005224,"INCLINATION":51.9035,"RA_OF_ASC_NODE":329.3937,"ARG_OF_PERICENTER":115.9788,"MEAN_ANOMALY":244.1229,"EPHEMERIS_TYPE":0,"NORAD_CAT_ID":64515,"ELEMENT_SET_NO":999,"REV_AT_EPOCH":5974,"BSTAR":0.00024738741,"MEAN_MOTION_DOT":0.00001665,"MEAN_MOTION_DDOT":0},{"OBJECT_NAME":"KUIPER-00056","OBJECT_ID":"2025-134S","EPOCH":"2026-07-14T18:23:03.566400","CLASSIFICATION_TYPE":"U","MEAN_MOTION":14.79930125,"ECCENTRICITY":0.00007218,"INCLINATION":51.9039,"RA_OF_ASC_NODE":21.2106,"ARG_OF_PERICENTER":117.006,"MEAN_ANOMALY":243.0976,"EPHEMERIS_TYPE":0,"NORAD_CAT_ID":64516,"ELEMENT_SET_NO":999,"REV_AT_EPOCH":5903,"BSTAR":0.00024721781,"MEAN_MOTION_DOT":0.00001664,"MEAN_MOTION_DDOT":0},{"OBJECT_NAME":"KUIPER-00057","OBJECT_ID":"2025-134T","EPOCH":"2026-07-14T19:48:37.973664","CLASSIFICATION_TYPE":"U","MEAN_MOTION":14.799325,"ECCENTRICITY":0.0000734,"INCLINATION":51.8999,"RA_OF_ASC_NODE":28.3785,"ARG_OF_PERICENTER":117.8458,"MEAN_ANOMALY":242.2579,"EPHEMERIS_TYPE":0,"NORAD_CAT_ID":64517,"ELEMENT_SET_NO":999,"REV_AT_EPOCH":5893,"BSTAR":0.00027295,"MEAN_MOTION_DOT":0.0000186,"MEAN_MOTION_DDOT":0},{"OBJECT_NAME":"KUIPER-00058","OBJECT_ID":"2025-134U","EPOCH":"2026-07-14T22:22:15.866976","CLASSIFICATION_TYPE":"U","MEAN_MOTION":14.7993262,"ECCENTRICITY":0.0000791,"INCLINATION":51.9014,"RA_OF_ASC_NODE":22.8777,"ARG_OF_PERICENTER":129.5279,"MEAN_ANOMALY":230.5753,"EPHEMERIS_TYPE":0,"NORAD_CAT_ID":64518,"ELEMENT_SET_NO":999,"REV_AT_EPOCH":5902,"BSTAR":-0.0000024251,"MEAN_MOTION_DOT":-0.0000024,"MEAN_MOTION_DDOT":0},{"OBJECT_NAME":"KUIPER-00059","OBJECT_ID":"2025-134V","EPOCH":"2026-07-14T19:15:32.839488","CLASSIFICATION_TYPE":"U","MEAN_MOTION":14.79932105,"ECCENTRICITY":0.00006964,"INCLINATION":51.9011,"RA_OF_ASC_NODE":18.4911,"ARG_OF_PERICENTER":125.9222,"MEAN_ANOMALY":234.1805,"EPHEMERIS_TYPE":0,"NORAD_CAT_ID":64519,"ELEMENT_SET_NO":999,"REV_AT_EPOCH":5907,"BSTAR":0.00025881157,"MEAN_MOTION_DOT":0.00001752,"MEAN_MOTION_DDOT":0},{"OBJECT_NAME":"KUIPER-00060","OBJECT_ID":"2025-134W","EPOCH":"2026-07-14T16:49:41.926080","CLASSIFICATION_TYPE":"U","MEAN_MOTION":14.79930242,"ECCENTRICITY":0.00006937,"INCLINATION":51.9037,"RA_OF_ASC_NODE":19.0031,"ARG_OF_PERICENTER":120.2449,"MEAN_ANOMALY":239.8582,"EPHEMERIS_TYPE":0,"NORAD_CAT_ID":64520,"ELEMENT_SET_NO":999,"REV_AT_EPOCH":5904,"BSTAR":0.00024172442,"MEAN_MOTION_DOT":0.00001622,"MEAN_MOTION_DDOT":0},{"OBJECT_NAME":"KUIPER-00061","OBJECT_ID":"2025-134X","EPOCH":"2026-07-14T22:18:26.126784","CLASSIFICATION_TYPE":"U","MEAN_MOTION":14.79917872,"ECCENTRICITY":0.0000858,"INCLINATION":51.9026,"RA_OF_ASC_NODE":25.4454,"ARG_OF_PERICENTER":112.466,"MEAN_ANOMALY":247.6393,"EPHEMERIS_TYPE":0,"NORAD_CAT_ID":64521,"ELEMENT_SET_NO":999,"REV_AT_EPOCH":5897,"BSTAR":0.00024306,"MEAN_MOTION_DOT":0.00001632,"MEAN_MOTION_DDOT":0}]}
