KUIPER-00044            
1 64505U 25134F   26195.94431925  .00001744  00000+0  25772-3 0  9996
2 64505  51.9004  42.8345 0000736 121.1569 238.9465 14.79929873 58748
KUIPER-00046            
1 64506U 25134G   26195.98078185 -.00000084  00000+0  18009-4 0  9999
2 64506  51.8994  40.1499 0000840 117.2746 242.8302 14.79932725 58784
KUIPER-00047            
1 64507U 25134H   26195.70656036  .00001599  00000+0  23870-3 0  9999
2 64507  51.9005  13.8868 0000604 106.3739 253.7290 14.79929070 59120
KUIPER-00048            
1 64508U 25134J   26195.80786007  .00001719  00000+0  25441-3 0  9993
2 64508  51.9008  13.4533 0000721 127.3868 232.7160 14.79939648 59142
KUIPER-00049            
1 64509U 25134K   26195.82813007  .00001632  00000+0  24305-3 0  9999
2 64509  51.9011  25.8281 0000663 116.7953 243.3077 14.79933190 58977
KUIPER-00050            
1 64510U 25134L   26195.77948214  .00001708  00000+0  25302-3 0  9996
2 64510  51.9018   8.5651 0000640 121.0997 239.0028 14.79933301 59217
KUIPER-00051            
1 64511U 25134M   26195.93920117  .00001702  00000+0  25210-3 0  9999
2 64511  51.9025  24.0308 0000804 119.7161 240.3881 14.79944766 59003
KUIPER-00053            
1 64513U 25134P   26195.89258074  .00001510  00000+0  21808-3 0  9998
2 64513  51.9017  19.4828 0000399 312.1047  47.9882 14.81687775 59067
KUIPER-00054            
1 64514U 25134Q   26195.94025197  .00001813  00000+0  26678-3 0  9999
2 64514  51.9000  15.3454 0000809 123.6063 236.4977 14.79934537 59124
KUIPER-00055            
1 64515U 25134R   26195.62005312  .00001665  00000+0  24739-3 0  9993
2 64515  51.9035 329.3937 0000522 115.9788 244.1229 14.79928884 59749
KUIPER-00056            
1 64516U 25134S   26195.76601350  .00001664  00000+0  24722-3 0  9994
2 64516  51.9039  21.2106 0000721 117.0060 243.0976 14.79930125 59037
KUIPER-00057            
1 64517U 25134T   26195.82543951  .00001860  00000+0  27295-3 0  9990
2 64517  51.8999  28.3785 0000734 117.8458 242.2579 14.79932500 58933
KUIPER-00058            
1 64518U 25134U   26195.93212809 -.00000240  00000+0 -24251-5 0  9992
2 64518  51.9014  22.8777 0000791 129.5279 230.5753 14.79932620 59025
KUIPER-00059            
1 64519U 25134V   26195.80246342  .00001752  00000+0  25881-3 0  9993
2 64519  51.9011  18.4911 0000696 125.9222 234.1805 14.79932105 59077
KUIPER-00060            
1 64520U 25134W   26195.70117970  .00001622  00000+0  24172-3 0  9996
2 64520  51.9037  19.0031 0000693 120.2449 239.8582 14.79930242 59044
KUIPER-00061            
1 64521U 25134X   26195.92946906  .00001632  00000+0  24306-3 0  9990
2 64521  51.9026  25.4454 0000858 112.4660 247.6393 14.79917872 58976
